ORBITAL FACTORY 2 (OF-2)
1 45113U 19071C   20247.68710135  .00002542  00000-0  88389-4 0  9991
2 45113  51.6445 345.5573 0012740 341.6544  18.3977 15.33606854 33130
M2 PATHFINDER           
1 45727U 20037E   20248.04817893  .00000204  00000-0  26012-4 0  9994
2 45727  97.7052  66.3402 0013496  42.3076 317.9180 14.91220497  9730
